{"type": "FeatureCollection", "features": [ {"type": "Feature", "properties": {"norad_id": 30283, "name": "FENGYUN 1C DEB", "group": "fengyun-1c-debris", "lat": 34.544992877972525, "lon": 163.42473031486614, "alt_km": 888.1646093399049, "timestamp": "2025-12-09T11:33:55.075072+00:00", "meta": {"OBJECT_NAME": "FENGYUN 1C DEB", "OBJECT_ID": "1999-025YU", "EPOCH": "2025-12-08T23:00:07.596000", "MEAN_MOTION": 14.01973211, "ECCENTRICITY": 0.0185182, "INCLINATION": 98.8671, "RA_OF_ASC_NODE": 336.746, "ARG_OF_PERICENTER": 53.7817, "MEAN_ANOMALY": 328.4527, "EPHEMERIS_TYPE": 0, "CLASSIFICATION_TYPE": "U", "NORAD_CAT_ID": 30283, "ELEMENT_SET_NO": 999, "REV_AT_EPOCH": 96638, "BSTAR": 8.8942e-05, "MEAN_MOTION_DOT": 1.16e-06, "MEAN_MOTION_DDOT": 0}, "tle": {"line1": "1 30283U 99025YU  25342.95842125  .00000116  00000+0  88942-4 0  9995", "line2": "2 30283  98.8671 336.7460 0185182  53.7817 328.4527 14.01973211966384"}}, "geometry": {"type": "Point", "coordinates": [163.42473031486614, 34.544992877972525]}}, {"type": "Feature", "properties": {"norad_id": 30284, "name": "FENGYUN 1C DEB", "group": "fengyun-1c-debris", "lat": 48.49802025675909, "lon": 41.9343137226334, "alt_km": 781.6649346233826, "timestamp": "2025-12-09T11:33:55.075093+00:00", "meta": {"OBJECT_NAME": "FENGYUN 1C DEB", "OBJECT_ID": "1999-025YV", "EPOCH": "2025-12-09T03:12:53.527104", "MEAN_MOTION": 14.28720844, "ECCENTRICITY": 0.0037967, "INCLINATION": 98.7201, "RA_OF_ASC_NODE": 51.5759, "ARG_OF_PERICENTER": 119.1551, "MEAN_ANOMALY": 302.0327, "EPHEMERIS_TYPE": 0, "CLASSIFICATION_TYPE": "U", "NORAD_CAT_ID": 30284, "ELEMENT_SET_NO": 999, "REV_AT_EPOCH": 97464, "BSTAR": 0.0017826, "MEAN_MOTION_DOT": 4.478e-05, "MEAN_MOTION_DDOT": 0}, "tle": {"line1": "1 30284U 99025YV  25343.13395286  .00004478  00000+0  17826-2 0  9994", "line2": "2 30284  98.7201  51.5759 0037967 119.1551 302.0327 14.28720844974640"}}, "geometry": {"type": "Point", "coordinates": [41.9343137226334, 48.49802025675909]}}, {"type": "Feature", "properties": {"norad_id": 30286, "name": "FENGYUN 1C DEB", "group": "fengyun-1c-debris", "lat": -51.374807885934544, "lon": -1.0237995084590426, "alt_km": 902.2334772463528, "timestamp": "2025-12-09T11:33:55.075106+00:00", "meta": {"OBJECT_NAME": "FENGYUN 1C DEB", "OBJECT_ID": "1999-025YX", "EPOCH": "2025-12-09T00:10:41.024064", "MEAN_MOTION": 14.12721238, "ECCENTRICITY": 0.0064571, "INCLINATION": 98.69, "RA_OF_ASC_NODE": 347.4807, "ARG_OF_PERICENTER": 143.2829, "MEAN_ANOMALY": 272.6998, "EPHEMERIS_TYPE": 0, "CLASSIFICATION_TYPE": "U", "NORAD_CAT_ID": 30286, "ELEMENT_SET_NO": 999, "REV_AT_EPOCH": 97406, "BSTAR": 0.00012194, "MEAN_MOTION_DOT": 1.89e-06, "MEAN_MOTION_DDOT": 0}, "tle": {"line1": "1 30286U 99025YX  25343.00741926  .00000189  00000+0  12194-3 0  9997", "line2": "2 30286  98.6900 347.4807 0064571 143.2829 272.6998 14.12721238974068"}}, "geometry": {"type": "Point", "coordinates": [-1.0237995084590426, -51.374807885934544]}}, {"type": "Feature", "properties": {"norad_id": 30287, "name": "FENGYUN 1C DEB", "group": "fengyun-1c-debris", "lat": -44.276940691178275, "lon": 26.551407686418035, "alt_km": 875.8893221163598, "timestamp": "2025-12-09T11:33:55.075117+00:00", "meta": {"OBJECT_NAME": "FENGYUN 1C DEB", "OBJECT_ID": "1999-025YY", "EPOCH": "2025-12-09T01:29:12.435072", "MEAN_MOTION": 13.68571885, "ECCENTRICITY": 0.0413538, "INCLINATION": 98.6377, "RA_OF_ASC_NODE": 17.6507, "ARG_OF_PERICENTER": 22.0977, "MEAN_ANOMALY": 29.4757, "EPHEMERIS_TYPE": 0, "CLASSIFICATION_TYPE": "U", "NORAD_CAT_ID": 30287, "ELEMENT_SET_NO": 999, "REV_AT_EPOCH": 93808, "BSTAR": 0.001228, "MEAN_MOTION_DOT": 1.88e-05, "MEAN_MOTION_DDOT": 0}, "tle": {"line1": "1 30287U 99025YY  25343.06194948  .00001880  00000+0  12280-2 0  9994", "line2": "2 30287  98.6377  17.6507 0413538  22.0977  29.4757 13.68571885938083"}}, "geometry": {"type": "Point", "coordinates": [26.551407686418035, -44.276940691178275]}}, {"type": "Feature", "properties": {"norad_id": 30288, "name": "FENGYUN 1C DEB", "group": "fengyun-1c-debris", "lat": -29.123909991700696, "lon": -120.43173641377788, "alt_km": 796.9027986459605, "timestamp": "2025-12-09T11:33:55.075127+00:00", "meta": {"OBJECT_NAME": "FENGYUN 1C DEB", "OBJECT_ID": "1999-025YZ", "EPOCH": "2025-12-09T04:09:00.961056", "MEAN_MOTION": 14.32528485, "ECCENTRICITY": 0.0020367, "INCLINATION": 99.3948, "RA_OF_ASC_NODE": 64.5263, "ARG_OF_PERICENTER": 332.7584, "MEAN_ANOMALY": 84.4411, "EPHEMERIS_TYPE": 0, "CLASSIFICATION_TYPE": "U", "NORAD_CAT_ID": 30288, "ELEMENT_SET_NO": 999, "REV_AT_EPOCH": 97518, "BSTAR": 0.0021227, "MEAN_MOTION_DOT": 5.722e-05, "MEAN_MOTION_DDOT": 0}, "tle": {"line1": "1 30288U 99025YZ  25343.17292779  .00005722  00000+0  21227-2 0  9998", "line2": "2 30288  99.3948  64.5263 0020367 332.7584  84.4411 14.32528485975185"}}, "geometry": {"type": "Point", "coordinates": [-120.43173641377788, -29.123909991700696]}}, {"type": "Feature", "properties": {"norad_id": 30289, "name": "FENGYUN 1C DEB", "group": "fengyun-1c-debris", "lat": 58.057905178971644, "lon": 65.30920054723124, "alt_km": 795.201171605966, "timestamp": "2025-12-09T11:33:55.075138+00:00", "meta": {"OBJECT_NAME": "FENGYUN 1C DEB", "OBJECT_ID": "1999-025ZA", "EPOCH": "2025-12-09T03:25:20.055936", "MEAN_MOTION": 14.25771531, "ECCENTRICITY": 0.0037118, "INCLINATION": 98.9269, "RA_OF_ASC_NODE": 79.5658, "ARG_OF_PERICENTER": 340.9428, "MEAN_ANOMALY": 137.3555, "EPHEMERIS_TYPE": 0, "CLASSIFICATION_TYPE": "U", "NORAD_CAT_ID": 30289, "ELEMENT_SET_NO": 999, "REV_AT_EPOCH": 97030, "BSTAR": 0.0023764, "MEAN_MOTION_DOT": 5.644e-05, "MEAN_MOTION_DDOT": 0}, "tle": {"line1": "1 30289U 99025ZA  25343.14259324  .00005644  00000+0  23764-2 0  9996", "line2": "2 30289  98.9269  79.5658 0037118 340.9428 137.3555 14.25771531970301"}}, "geometry": {"type": "Point", "coordinates": [65.30920054723124, 58.057905178971644]}}, {"type": "Feature", "properties": {"norad_id": 30290, "name": "FENGYUN 1C DEB", "group": "fengyun-1c-debris", "lat": -55.29759369713546, "lon": 102.37761967181876, "alt_km": 658.9254717253352, "timestamp": "2025-12-09T11:33:55.075148+00:00", "meta": {"OBJECT_NAME": "FENGYUN 1C DEB", "OBJECT_ID": "1999-025ZB", "EPOCH": "2025-12-08T18:35:32.229312", "MEAN_MOTION": 14.74490948, "ECCENTRICITY": 0.00163795, "INCLINATION": 102.6224, "RA_OF_ASC_NODE": 82.4006, "ARG_OF_PERICENTER": 63.2549, "MEAN_ANOMALY": 87.4161, "EPHEMERIS_TYPE": 0, "CLASSIFICATION_TYPE": "U", "NORAD_CAT_ID": 30290, "ELEMENT_SET_NO": 999, "REV_AT_EPOCH": 97820, "BSTAR": 0.0073181113, "MEAN_MOTION_DOT": 0.00049042, "MEAN_MOTION_DDOT": 0}, "tle": {"line1": "1 30290U 99025ZB  25342.77467858  .00049042  00000+0  73181-2 0  9997", "line2": "2 30290 102.6224  82.4006 0016379  63.2549  87.4161 14.74490948978201"}}, "geometry": {"type": "Point", "coordinates": [102.37761967181876, -55.29759369713546]}}, {"type": "Feature", "properties": {"norad_id": 30291, "name": "FENGYUN 1C DEB", "group": "fengyun-1c-debris", "lat": -79.62544506104958, "lon": 8.791752201876527, "alt_km": 763.4383578310317, "timestamp": "2025-12-09T11:33:55.075158+00:00", "meta": {"OBJECT_NAME": "FENGYUN 1C DEB", "OBJECT_ID": "1999-025ZC", "EPOCH": "2025-12-09T04:26:42.969120", "MEAN_MOTION": 14.55077858, "ECCENTRICITY": 0.0112244, "INCLINATION": 97.2319, "RA_OF_ASC_NODE": 232.4495, "ARG_OF_PERICENTER": 30.1871, "MEAN_ANOMALY": 120.2845, "EPHEMERIS_TYPE": 0, "CLASSIFICATION_TYPE": "U", "NORAD_CAT_ID": 30291, "ELEMENT_SET_NO": 999, "REV_AT_EPOCH": 97656, "BSTAR": 0.0034068, "MEAN_MOTION_DOT": 0.00015983, "MEAN_MOTION_DDOT": 0}, "tle": {"line1": "1 30291U 99025ZC  25343.18521955  .00015983  00000+0  34068-2 0  9991", "line2": "2 30291  97.2319 232.4495 0112244  30.1871 120.2845 14.55077858976566"}}, "geometry": {"type": "Point", "coordinates": [8.791752201876527, -79.62544506104958]}}, {"type": "Feature", "properties": {"norad_id": 30293, "name": "FENGYUN 1C DEB", "group": "fengyun-1c-debris", "lat": -51.984931711404144, "lon": -17.945265904738672, "alt_km": 753.0540246709161, "timestamp": "2025-12-09T11:33:55.075168+00:00", "meta": {"OBJECT_NAME": "FENGYUN 1C DEB", "OBJECT_ID": "1999-025ZE", "EPOCH": "2025-12-08T11:26:13.860384", "MEAN_MOTION": 14.48903722, "ECCENTRICITY": 0.00766464, "INCLINATION": 99.2547, "RA_OF_ASC_NODE": 172.9927, "ARG_OF_PERICENTER": 127.3342, "MEAN_ANOMALY": 263.7879, "EPHEMERIS_TYPE": 0, "CLASSIFICATION_TYPE": "U", "NORAD_CAT_ID": 30293, "ELEMENT_SET_NO": 999, "REV_AT_EPOCH": 98915, "BSTAR": 0.0012430487, "MEAN_MOTION_DOT": 4.831e-05, "MEAN_MOTION_DDOT": 0}, "tle": {"line1": "1 30293U 99025ZE  25342.47654931  .00004831  00000+0  12430-2 0  9994", "line2": "2 30293  99.2547 172.9927 0076646 127.3342 263.7879 14.48903722989157"}}, "geometry": {"type": "Point", "coordinates": [-17.945265904738672, -51.984931711404144]}}, {"type": "Feature", "properties": {"norad_id": 30294, "name": "FENGYUN 1C DEB", "group": "fengyun-1c-debris", "lat": -42.02225090608196, "lon": -20.562379264614435, "alt_km": 640.4349459106343, "timestamp": "2025-12-09T11:33:55.075179+00:00", "meta": {"OBJECT_NAME": "FENGYUN 1C DEB", "OBJECT_ID": "1999-025ZF", "EPOCH": "2025-12-08T22:36:53.773056", "MEAN_MOTION": 14.34931347, "ECCENTRICITY": 0.0197785, "INCLINATION": 98.3557, "RA_OF_ASC_NODE": 331.3046, "ARG_OF_PERICENTER": 321.0532, "MEAN_ANOMALY": 90.7129, "EPHEMERIS_TYPE": 0, "CLASSIFICATION_TYPE": "U", "NORAD_CAT_ID": 30294, "ELEMENT_SET_NO": 999, "REV_AT_EPOCH": 98482, "BSTAR": 0.00063784, "MEAN_MOTION_DOT": 2.213e-05, "MEAN_MOTION_DDOT": 0}, "tle": {"line1": "1 30294U 99025ZF  25342.94228904  .00002213  00000+0  63784-3 0  9995", "line2": "2 30294  98.3557 331.3046 0197785 321.0532  90.7129 14.34931347984828"}}, "geometry": {"type": "Point", "coordinates": [-20.562379264614435, -42.02225090608196]}}]}